{
  "type": "FeatureCollection",
  "features": [
    {
      "type": "Feature",
      "properties": {
        "norad_id": 44794,
        "name": "BEIDOU-3 M21 (C43)",
        "group": "beidou",
        "lat": 10.40697298757028,
        "lon": 118.16664182813606,
        "alt_km": 21538.067239372755,
        "timestamp": "2025-12-27T15:27:11.456241+00:00",
        "meta_object_name": "BEIDOU-3 M21 (C43)",
        "meta_object_id": "2019-078B",
        "meta_epoch": "2025-12-25T05:55:32.884896",
        "meta_mean_motion": 1.86227898,
        "meta_eccentricity": 0.0004304,
        "meta_inclination": 54.0703,
        "meta_ra_of_asc_node": 305.9129,
        "meta_arg_of_pericenter": 12.6939,
        "meta_mean_anomaly": 347.3266,
        "meta_ephemeris_type": 0,
        "meta_classification_type": "U",
        "meta_norad_cat_id": 44794,
        "meta_element_set_no": 999,
        "meta_rev_at_epoch": 4141,
        "meta_bstar": 0,
        "meta_mean_motion_dot": -5.3e-07,
        "meta_mean_motion_ddot": 0,
        "tle_line1": "1 44794U 19078B   25359.24690839 -.00000053  00000+0  00000+0 0  9995",
        "tle_line2": "2 44794  54.0703 305.9129 0004304  12.6939 347.3266  1.86227898 41411"
      },
      "geometry": {
        "type": "Point",
        "coordinates": [
          118.16664182813606,
          10.40697298757028
        ]
      }
    },
    {
      "type": "Feature",
      "properties": {
        "norad_id": 44864,
        "name": "BEIDOU-3 M19 (C41)",
        "group": "beidou",
        "lat": 2.5788778306949713,
        "lon": 70.19624289772267,
        "alt_km": 21516.94368620344,
        "timestamp": "2025-12-27T15:27:11.456252+00:00",
        "meta_object_name": "BEIDOU-3 M19 (C41)",
        "meta_object_id": "2019-090A",
        "meta_epoch": "2025-12-27T02:26:46.358016",
        "meta_mean_motion": 1.86231443,
        "meta_eccentricity": 0.0018509,
        "meta_inclination": 56.4046,
        "meta_ra_of_asc_node": 68.4857,
        "meta_arg_of_pericenter": 285.4212,
        "meta_mean_anomaly": 74.1614,
        "meta_ephemeris_type": 0,
        "meta_classification_type": "U",
        "meta_norad_cat_id": 44864,
        "meta_element_set_no": 999,
        "meta_rev_at_epoch": 4102,
        "meta_bstar": 0,
        "meta_mean_motion_dot": -3.5e-07,
        "meta_mean_motion_ddot": 0,
        "tle_line1": "1 44864U 19090A   25361.10192544 -.00000035  00000+0  00000+0 0  9995",
        "tle_line2": "2 44864  56.4046  68.4857 0018509 285.4212  74.1614  1.86231443 41020"
      },
      "geometry": {
        "type": "Point",
        "coordinates": [
          70.19624289772267,
          2.5788778306949713
        ]
      }
    },
    {
      "type": "Feature",
      "properties": {
        "norad_id": 44865,
        "name": "BEIDOU-3 M20 (C42)",
        "group": "beidou",
        "lat": 56.33209615914333,
        "lon": 163.2197267098777,
        "alt_km": 21561.026522928307,
        "timestamp": "2025-12-27T15:27:11.456264+00:00",
        "meta_object_name": "BEIDOU-3 M20 (C42)",
        "meta_object_id": "2019-090B",
        "meta_epoch": "2025-12-26T13:03:31.682016",
        "meta_mean_motion": 1.86231463,
        "meta_eccentricity": 0.0015612,
        "meta_inclination": 56.4057,
        "meta_ra_of_asc_node": 68.5385,
        "meta_arg_of_pericenter": 297.4355,
        "meta_mean_anomaly": 137.7791,
        "meta_ephemeris_type": 0,
        "meta_classification_type": "U",
        "meta_norad_cat_id": 44865,
        "meta_element_set_no": 999,
        "meta_rev_at_epoch": 4100,
        "meta_bstar": 0,
        "meta_mean_motion_dot": -3.2e-07,
        "meta_mean_motion_ddot": 0,
        "tle_line1": "1 44865U 19090B   25360.54411669 -.00000032  00000+0  00000+0 0  9992",
        "tle_line2": "2 44865  56.4057  68.5385 0015612 297.4355 137.7791  1.86231463 41005"
      },
      "geometry": {
        "type": "Point",
        "coordinates": [
          163.2197267098777,
          56.33209615914333
        ]
      }
    },
    {
      "type": "Feature",
      "properties": {
        "norad_id": 45344,
        "name": "BEIDOU-3 G2 (C60)",
        "group": "beidou",
        "lat": 0.1893938796689418,
        "lon": 48.22337871920893,
        "alt_km": 35791.64071066761,
        "timestamp": "2025-12-27T15:27:11.456275+00:00",
        "meta_object_name": "BEIDOU-3 G2 (C60)",
        "meta_object_id": "2020-017A",
        "meta_epoch": "2025-12-27T04:51:38.509056",
        "meta_mean_motion": 1.00271779,
        "meta_eccentricity": 0.00021861,
        "meta_inclination": 2.5224,
        "meta_ra_of_asc_node": 44.1664,
        "meta_arg_of_pericenter": 237.1278,
        "meta_mean_anomaly": 327.5982,
        "meta_ephemeris_type": 0,
        "meta_classification_type": "U",
        "meta_norad_cat_id": 45344,
        "meta_element_set_no": 999,
        "meta_rev_at_epoch": 2153,
        "meta_bstar": 0,
        "meta_mean_motion_dot": -1.19e-06,
        "meta_mean_motion_ddot": 0,
        "tle_line1": "1 45344U 20017A   25361.20252904 -.00000119  00000+0  00000+0 0  9991",
        "tle_line2": "2 45344   2.5224  44.1664 0002186 237.1278 327.5982  1.00271779 21530"
      },
      "geometry": {
        "type": "Point",
        "coordinates": [
          48.22337871920893,
          0.1893938796689418
        ]
      }
    },
    {
      "type": "Feature",
      "properties": {
        "norad_id": 45807,
        "name": "BEIDOU-3 G3 (C61)",
        "group": "beidou",
        "lat": 0.4381811954549995,
        "lon": 78.70689630346811,
        "alt_km": 35775.333490685945,
        "timestamp": "2025-12-27T15:27:11.456287+00:00",
        "meta_object_name": "BEIDOU-3 G3 (C61)",
        "meta_object_id": "2020-040A",
        "meta_epoch": "2025-12-27T06:40:41.652768",
        "meta_mean_motion": 1.00266195,
        "meta_eccentricity": 0.0006581,
        "meta_inclination": 2.0241,
        "meta_ra_of_asc_node": 66.7054,
        "meta_arg_of_pericenter": 308.3364,
        "meta_mean_anomaly": 291.6349,
        "meta_ephemeris_type": 0,
        "meta_classification_type": "U",
        "meta_norad_cat_id": 45807,
        "meta_element_set_no": 999,
        "meta_rev_at_epoch": 2034,
        "meta_bstar": 0,
        "meta_mean_motion_dot": -3.32e-06,
        "meta_mean_motion_ddot": 0,
        "tle_line1": "1 45807U 20040A   25361.27825987 -.00000332  00000+0  00000+0 0  9992",
        "tle_line2": "2 45807   2.0241  66.7054 0006581 308.3364 291.6349  1.00266195 20343"
      },
      "geometry": {
        "type": "Point",
        "coordinates": [
          78.70689630346811,
          0.4381811954549995
        ]
      }
    },
    {
      "type": "Feature",
      "properties": {
        "norad_id": 56564,
        "name": "BEIDOU-3 G4 (C62)",
        "group": "beidou",
        "lat": -0.05295759846091605,
        "lon": 128.18559849283827,
        "alt_km": 35779.20329368145,
        "timestamp": "2025-12-27T15:27:11.456298+00:00",
        "meta_object_name": "BEIDOU-3 G4 (C62)",
        "meta_object_id": "2023-066A",
        "meta_epoch": "2025-12-27T05:12:12.626784",
        "meta_mean_motion": 1.00270521,
        "meta_eccentricity": 0.00024938,
        "meta_inclination": 0.7849,
        "meta_ra_of_asc_node": 303.1966,
        "meta_arg_of_pericenter": 231.2538,
        "meta_mean_anomaly": 159.6005,
        "meta_ephemeris_type": 0,
        "meta_classification_type": "U",
        "meta_norad_cat_id": 56564,
        "meta_element_set_no": 999,
        "meta_rev_at_epoch": 967,
        "meta_bstar": 0,
        "meta_mean_motion_dot": -8.9e-07,
        "meta_mean_motion_ddot": 0,
        "tle_line1": "1 56564U 23066A   25361.21681281 -.00000089  00000+0  00000+0 0  9995",
        "tle_line2": "2 56564   0.7849 303.1966 0002493 231.2538 159.6005  1.00270521  9672"
      },
      "geometry": {
        "type": "Point",
        "coordinates": [
          128.18559849283827,
          -0.05295759846091605
        ]
      }
    },
    {
      "type": "Feature",
      "properties": {
        "norad_id": 58654,
        "name": "BEIDOU-3 M28 (C50)",
        "group": "beidou",
        "lat": 48.59678758336194,
        "lon": -162.80564828611597,
        "alt_km": 21530.29577479276,
        "timestamp": "2025-12-27T15:27:11.456309+00:00",
        "meta_object_name": "BEIDOU-3 M28 (C50)",
        "meta_object_id": "2023-207A",
        "meta_epoch": "2025-12-26T09:34:30.666720",
        "meta_mean_motion": 1.86229622,
        "meta_eccentricity": 0.0002968,
        "meta_inclination": 55.596,
        "meta_ra_of_asc_node": 68.1388,
        "meta_arg_of_pericenter": 276.5456,
        "meta_mean_anomaly": 83.472,
        "meta_ephemeris_type": 0,
        "meta_classification_type": "U",
        "meta_norad_cat_id": 58654,
        "meta_element_set_no": 999,
        "meta_rev_at_epoch": 1362,
        "meta_bstar": 0,
        "meta_mean_motion_dot": -3.3e-07,
        "meta_mean_motion_ddot": 0,
        "tle_line1": "1 58654U 23207A   25360.39896605 -.00000033  00000+0  00000+0 0  9999",
        "tle_line2": "2 58654  55.5960  68.1388 0002968 276.5456  83.4720  1.86229622 13628"
      },
      "geometry": {
        "type": "Point",
        "coordinates": [
          -162.80564828611597,
          48.59678758336194
        ]
      }
    }
  ]
}